{
    "links": {
        "self": "http://www.neowsapp.com/rest/v1/neo/3182164?api_key=iIulBulltgU6a56xZRHN4H3l9WmuAYTsLGpBGhQ2"
    },
    "id": "3182164",
    "neo_reference_id": "3182164",
    "name": "(2004 JB)",
    "designation": "2004 JB",
    "nasa_jpl_url": "http://ssd.jpl.nasa.gov/sbdb.cgi?sstr=3182164",
    "absolute_magnitude_h": 22.5,
    "estimated_diameter": {
        "kilometers": {
            "estimated_diameter_min": 0.0840533402,
            "estimated_diameter_max": 0.1879489824
        },
        "meters": {
            "estimated_diameter_min": 84.0533402073,
            "estimated_diameter_max": 187.9489824394
        },
        "miles": {
            "estimated_diameter_min": 0.0522283081,
            "estimated_diameter_max": 0.1167860472
        },
        "feet": {
            "estimated_diameter_min": 275.7655606856,
            "estimated_diameter_max": 616.6305395464
        }
    },
    "is_potentially_hazardous_asteroid": false,
    "close_approach_data": [
        {
            "close_approach_date": "2004-04-26",
            "close_approach_date_full": "2004-Apr-26 11:35",
            "epoch_date_close_approach": 1082979300000,
            "relative_velocity": {
                "kilometers_per_second": "7.8288131786",
                "kilometers_per_hour": "28183.7274430732",
                "miles_per_hour": "17512.2721992807"
            },
            "miss_distance": {
                "astronomical": "0.2128116406",
                "lunar": "82.7837281934",
                "kilometers": "31836168.144965522",
                "miles": "19782077.5781553236"
            },
            "orbiting_body": "Earth"
        }
    ],
    "orbital_data": {
        "orbit_id": "10",
        "orbit_determination_date": "2017-04-06 09:12:50",
        "first_observation_date": "2004-05-01",
        "last_observation_date": "2004-05-30",
        "data_arc_in_days": 29,
        "observations_used": 25,
        "orbit_uncertainty": "7",
        "minimum_orbit_intersection": ".191794",
        "jupiter_tisserand_invariant": "3.299",
        "epoch_osculation": "2459000.5",
        "eccentricity": ".5173309444491628",
        "semi_major_axis": "2.400411908808915",
        "inclination": "13.22897594692232",
        "ascending_node_longitude": "57.90743315196248",
        "orbital_period": "1358.398164028815",
        "perihelion_distance": "1.158604548957781",
        "perihelion_argument": "141.707011423145",
        "aphelion_distance": "3.642219268660049",
        "perihelion_time": "2458538.134609336807",
        "mean_anomaly": "122.5351631402962",
        "mean_motion": ".2650180260346432",
        "equinox": "J2000",
        "orbit_class": {
            "orbit_class_type": "AMO",
            "orbit_class_description": "Near-Earth asteroid orbits similar to that of 1221 Amor",
            "orbit_class_range": "1.017 AU < q (perihelion) < 1.3 AU"
        }
    },
    "is_sentry_object": false
}